PROGRESS-MS 32          
1 65586U 25204A   25332.54438814  .00008991  00000+0  17015-3 0  9998
2 65586  51.6312 212.7497 0003745 179.2752 180.8242 15.49168962   279
CYGNUS NG-23            
1 65616U 25208A   25332.54438814  .00008991  00000+0  17015-3 0  9996
2 65616  51.6312 212.7497 0003745 179.2752 180.8242 15.49168962   228
DRAGONFLY               
1 65729U 98067XH  25331.96277047  .00130658  00000+0  12021-2 0  9995
2 65729  51.6262 211.1145 0006345 191.7555 168.3294 15.66720424 10842
1998-067XJ              
1 65730U 98067XJ  25332.03722746  .01245391  79531-3  26236-2 0  9991
2 65730  51.6165 206.3002 0011883 203.2937 156.7535 15.98257729 10915
1998-067XK              
1 65731U 98067XK  25332.03835409  .00084081  00000+0  92060-3 0  9999
2 65731  51.6289 211.6277 0006032 165.6868 194.4298 15.62533124 10844
RSP-03                  
1 65732U 98067XL  25332.06571717  .00106782  00000+0  10761-2 0  9992
2 65732  51.6272 211.0556 0006938 168.0395 192.0766 15.64532307 10868
GHS-01                  
1 65733U 98067XM  25331.99901602  .00155859  00000+0  13318-2 0  9994
2 65733  51.6287 210.6117 0006882 190.1703 169.9155 15.68442285 10864
YOTSUBA-KULOVER         
1 65941U 98067XN  25332.09018959  .00066291  00000+0  89666-3 0  9992
2 65941  51.6290 213.4702 0002444 143.7516 216.3642 15.57098024  7574
BOTAN                   
1 65942U 98067XP  25332.05801197  .00091596  00000+0  11306-2 0  9994
2 65942  51.6292 213.2561 0004661 146.1415 213.9876 15.59384100  7573
E-KAGAKU-1              
1 65943U 98067XQ  25331.96158062  .00062641  00000+0  84931-3 0  9994
2 65943  51.6304 214.1133 0003875 126.2761 233.8589 15.57053935  7559
HRC MONOBLOCK CAMERA    
1 66052U 98067XR  25332.36981285  .00034815  00000+0  55605-3 0  9990
2 66052  51.6296 213.0837 0004642 126.8643 233.2773 15.52837477  6608
HTV-X1                  
1 66174U 25241A   25332.54438814  .00008991  00000+0  17015-3 0  9993
2 66174  51.6312 212.7497 0003745 179.2752 180.8242 15.49168962   510
