CCSDS_OMM_VERS = 2.0
CREATION_DATE  = 
ORIGINATOR     = 

OBJECT_NAME    = PROGRESS-MS 32
OBJECT_ID      = 2025-204A
CENTER_NAME    = EARTH
REF_FRAME      = TEME
TIME_SYSTEM    = UTC
MEAN_ELEMENT_THEORY = SGP/SGP4

EPOCH          = 2025-11-28T13:03:55.135296
MEAN_MOTION    = 15.49168962
ECCENTRICITY   = .00037452
INCLINATION    = 51.6312
RA_OF_ASC_NODE = 212.7497
ARG_OF_PERICENTER = 179.2752
MEAN_ANOMALY   = 180.8242

EPHEMERIS_TYPE = 0
CLASSIFICATION_TYPE = U
NORAD_CAT_ID   = 65586
ELEMENT_SET_NO = 999
REV_AT_EPOCH   = 27
BSTAR          = .17015416E-3
MEAN_MOTION_DOT = .8991E-4
MEAN_MOTION_DDOT = 0

CCSDS_OMM_VERS = 2.0
CREATION_DATE  = 
ORIGINATOR     = 

OBJECT_NAME    = CYGNUS NG-23
OBJECT_ID      = 2025-208A
CENTER_NAME    = EARTH
REF_FRAME      = TEME
TIME_SYSTEM    = UTC
MEAN_ELEMENT_THEORY = SGP/SGP4

EPOCH          = 2025-11-28T13:03:55.135296
MEAN_MOTION    = 15.49168962
ECCENTRICITY   = .00037452
INCLINATION    = 51.6312
RA_OF_ASC_NODE = 212.7497
ARG_OF_PERICENTER = 179.2752
MEAN_ANOMALY   = 180.8242

EPHEMERIS_TYPE = 0
CLASSIFICATION_TYPE = U
NORAD_CAT_ID   = 65616
ELEMENT_SET_NO = 999
REV_AT_EPOCH   = 22
BSTAR          = .17015416E-3
MEAN_MOTION_DOT = .8991E-4
MEAN_MOTION_DDOT = 0

CCSDS_OMM_VERS = 2.0
CREATION_DATE  = 
ORIGINATOR     = 

OBJECT_NAME    = DRAGONFLY
OBJECT_ID      = 1998-067XH
CENTER_NAME    = EARTH
REF_FRAME      = TEME
TIME_SYSTEM    = UTC
MEAN_ELEMENT_THEORY = SGP/SGP4

EPOCH          = 2025-11-27T23:06:23.368608
MEAN_MOTION    = 15.66720424
ECCENTRICITY   = .0006345
INCLINATION    = 51.6262
RA_OF_ASC_NODE = 211.1145
ARG_OF_PERICENTER = 191.7555
MEAN_ANOMALY   = 168.3294

EPHEMERIS_TYPE = 0
CLASSIFICATION_TYPE = U
NORAD_CAT_ID   = 65729
ELEMENT_SET_NO = 999
REV_AT_EPOCH   = 1084
BSTAR          = .12021E-2
MEAN_MOTION_DOT = .130658E-2
MEAN_MOTION_DDOT = 0

CCSDS_OMM_VERS = 2.0
CREATION_DATE  = 
ORIGINATOR     = 

OBJECT_NAME    = 1998-067XJ
OBJECT_ID      = 1998-067XJ
CENTER_NAME    = EARTH
REF_FRAME      = TEME
TIME_SYSTEM    = UTC
MEAN_ELEMENT_THEORY = SGP/SGP4

EPOCH          = 2025-11-28T00:53:36.452544
MEAN_MOTION    = 15.98257729
ECCENTRICITY   = .00118834
INCLINATION    = 51.6165
RA_OF_ASC_NODE = 206.3002
ARG_OF_PERICENTER = 203.2937
MEAN_ANOMALY   = 156.7535

EPHEMERIS_TYPE = 0
CLASSIFICATION_TYPE = U
NORAD_CAT_ID   = 65730
ELEMENT_SET_NO = 999
REV_AT_EPOCH   = 1091
BSTAR          = .26236308E-2
MEAN_MOTION_DOT = .1245391E-1
MEAN_MOTION_DDOT = .79531038E-3

CCSDS_OMM_VERS = 2.0
CREATION_DATE  = 
ORIGINATOR     = 

OBJECT_NAME    = 1998-067XK
OBJECT_ID      = 1998-067XK
CENTER_NAME    = EARTH
REF_FRAME      = TEME
TIME_SYSTEM    = UTC
MEAN_ELEMENT_THEORY = SGP/SGP4

EPOCH          = 2025-11-28T00:55:13.793376
MEAN_MOTION    = 15.62533124
ECCENTRICITY   = .00060326
INCLINATION    = 51.6289
RA_OF_ASC_NODE = 211.6277
ARG_OF_PERICENTER = 165.6868
MEAN_ANOMALY   = 194.4298

EPHEMERIS_TYPE = 0
CLASSIFICATION_TYPE = U
NORAD_CAT_ID   = 65731
ELEMENT_SET_NO = 999
REV_AT_EPOCH   = 1084
BSTAR          = .9206031E-3
MEAN_MOTION_DOT = .84081E-3
MEAN_MOTION_DDOT = 0

CCSDS_OMM_VERS = 2.0
CREATION_DATE  = 
ORIGINATOR     = 

OBJECT_NAME    = RSP-03
OBJECT_ID      = 1998-067XL
CENTER_NAME    = EARTH
REF_FRAME      = TEME
TIME_SYSTEM    = UTC
MEAN_ELEMENT_THEORY = SGP/SGP4

EPOCH          = 2025-11-28T01:34:37.963488
MEAN_MOTION    = 15.64532307
ECCENTRICITY   = .00069386
INCLINATION    = 51.6272
RA_OF_ASC_NODE = 211.0556
ARG_OF_PERICENTER = 168.0395
MEAN_ANOMALY   = 192.0766

EPHEMERIS_TYPE = 0
CLASSIFICATION_TYPE = U
NORAD_CAT_ID   = 65732
ELEMENT_SET_NO = 999
REV_AT_EPOCH   = 1086
BSTAR          = .107614E-2
MEAN_MOTION_DOT = .106782E-2
MEAN_MOTION_DDOT = 0

CCSDS_OMM_VERS = 2.0
CREATION_DATE  = 
ORIGINATOR     = 

OBJECT_NAME    = GHS-01
OBJECT_ID      = 1998-067XM
CENTER_NAME    = EARTH
REF_FRAME      = TEME
TIME_SYSTEM    = UTC
MEAN_ELEMENT_THEORY = SGP/SGP4

EPOCH          = 2025-11-27T23:58:34.984128
MEAN_MOTION    = 15.68442285
ECCENTRICITY   = .0006882
INCLINATION    = 51.6287
RA_OF_ASC_NODE = 210.6117
ARG_OF_PERICENTER = 190.1703
MEAN_ANOMALY   = 169.9155

EPHEMERIS_TYPE = 0
CLASSIFICATION_TYPE = U
NORAD_CAT_ID   = 65733
ELEMENT_SET_NO = 999
REV_AT_EPOCH   = 1086
BSTAR          = .13318E-2
MEAN_MOTION_DOT = .155859E-2
MEAN_MOTION_DDOT = 0

CCSDS_OMM_VERS = 2.0
CREATION_DATE  = 
ORIGINATOR     = 

OBJECT_NAME    = YOTSUBA-KULOVER
OBJECT_ID      = 1998-067XN
CENTER_NAME    = EARTH
REF_FRAME      = TEME
TIME_SYSTEM    = UTC
MEAN_ELEMENT_THEORY = SGP/SGP4

EPOCH          = 2025-11-28T02:09:52.380576
MEAN_MOTION    = 15.57098024
ECCENTRICITY   = .00024446
INCLINATION    = 51.6290
RA_OF_ASC_NODE = 213.4702
ARG_OF_PERICENTER = 143.7516
MEAN_ANOMALY   = 216.3642

EPHEMERIS_TYPE = 0
CLASSIFICATION_TYPE = U
NORAD_CAT_ID   = 65941
ELEMENT_SET_NO = 999
REV_AT_EPOCH   = 757
BSTAR          = .89666102E-3
MEAN_MOTION_DOT = .66291E-3
MEAN_MOTION_DDOT = 0

CCSDS_OMM_VERS = 2.0
CREATION_DATE  = 
ORIGINATOR     = 

OBJECT_NAME    = BOTAN
OBJECT_ID      = 1998-067XP
CENTER_NAME    = EARTH
REF_FRAME      = TEME
TIME_SYSTEM    = UTC
MEAN_ELEMENT_THEORY = SGP/SGP4

EPOCH          = 2025-11-28T01:23:32.234208
MEAN_MOTION    = 15.59384100
ECCENTRICITY   = .00046611
INCLINATION    = 51.6292
RA_OF_ASC_NODE = 213.2561
ARG_OF_PERICENTER = 146.1415
MEAN_ANOMALY   = 213.9876

EPHEMERIS_TYPE = 0
CLASSIFICATION_TYPE = U
NORAD_CAT_ID   = 65942
ELEMENT_SET_NO = 999
REV_AT_EPOCH   = 757
BSTAR          = .11306353E-2
MEAN_MOTION_DOT = .91596E-3
MEAN_MOTION_DDOT = 0

CCSDS_OMM_VERS = 2.0
CREATION_DATE  = 
ORIGINATOR     = 

OBJECT_NAME    = E-KAGAKU-1
OBJECT_ID      = 1998-067XQ
CENTER_NAME    = EARTH
REF_FRAME      = TEME
TIME_SYSTEM    = UTC
MEAN_ELEMENT_THEORY = SGP/SGP4

EPOCH          = 2025-11-27T23:04:40.565568
MEAN_MOTION    = 15.57053935
ECCENTRICITY   = .00038752
INCLINATION    = 51.6304
RA_OF_ASC_NODE = 214.1133
ARG_OF_PERICENTER = 126.2761
MEAN_ANOMALY   = 233.8589

EPHEMERIS_TYPE = 0
CLASSIFICATION_TYPE = U
NORAD_CAT_ID   = 65943
ELEMENT_SET_NO = 999
REV_AT_EPOCH   = 755
BSTAR          = .84930638E-3
MEAN_MOTION_DOT = .62641E-3
MEAN_MOTION_DDOT = 0

CCSDS_OMM_VERS = 2.0
CREATION_DATE  = 
ORIGINATOR     = 

OBJECT_NAME    = HRC MONOBLOCK CAMERA
OBJECT_ID      = 1998-067XR
CENTER_NAME    = EARTH
REF_FRAME      = TEME
TIME_SYSTEM    = UTC
MEAN_ELEMENT_THEORY = SGP/SGP4

EPOCH          = 2025-11-28T08:52:31.830240
MEAN_MOTION    = 15.52837477
ECCENTRICITY   = .00046425
INCLINATION    = 51.6296
RA_OF_ASC_NODE = 213.0837
ARG_OF_PERICENTER = 126.8643
MEAN_ANOMALY   = 233.2773

EPHEMERIS_TYPE = 0
CLASSIFICATION_TYPE = U
NORAD_CAT_ID   = 66052
ELEMENT_SET_NO = 999
REV_AT_EPOCH   = 660
BSTAR          = .55604558E-3
MEAN_MOTION_DOT = .34815E-3
MEAN_MOTION_DDOT = 0

CCSDS_OMM_VERS = 2.0
CREATION_DATE  = 
ORIGINATOR     = 

OBJECT_NAME    = HTV-X1
OBJECT_ID      = 2025-241A
CENTER_NAME    = EARTH
REF_FRAME      = TEME
TIME_SYSTEM    = UTC
MEAN_ELEMENT_THEORY = SGP/SGP4

EPOCH          = 2025-11-28T13:03:55.135296
MEAN_MOTION    = 15.49168962
ECCENTRICITY   = .00037452
INCLINATION    = 51.6312
RA_OF_ASC_NODE = 212.7497
ARG_OF_PERICENTER = 179.2752
MEAN_ANOMALY   = 180.8242

EPHEMERIS_TYPE = 0
CLASSIFICATION_TYPE = U
NORAD_CAT_ID   = 66174
ELEMENT_SET_NO = 999
REV_AT_EPOCH   = 51
BSTAR          = .17015416E-3
MEAN_MOTION_DOT = .8991E-4
MEAN_MOTION_DDOT = 0

